[
  {
    "OBJECT_NAME": "STARLINK-34690",
    "OBJECT_ID": "25152X",
    "EPOCH": "2025-11-11T04:04:53.377536",
    "MEAN_MOTION": 15.02080404,
    "ECCENTRICITY": 0.0002535,
    "INCLINATION": 97.6021,
    "RA_OF_ASC_NODE": 168.8396,
    "ARG_OF_PERICENTER": 20.1046,
    "MEAN_ANOMALY": 340.0278,
    "EPHEMERIS_TYPE": 0,
    "CLASSIFICATION_TYPE": "U",
    "NORAD_CAT_ID": 64863,
    "ELEMENT_SET_NO": 999,
    "REV_AT_EPOCH": 1759,
    "BSTAR": 0.0005496600000000001,
    "MEAN_MOTION_DOT": 7.162e-05,
    "MEAN_MOTION_DDOT": 0.0,
    "TLE_LINE1": "1 64863U 25152X   25315.17006224  .00007162  00000+0  54966-3 0  9998",
    "TLE_LINE2": "2 64863  97.6021 168.8396 0002535  20.1046 340.0278 15.02080404 17593",
    "COMMENT": "Grouped by shell and plane from TLE"
  },
  {
    "OBJECT_NAME": "STARLINK-34628",
    "OBJECT_ID": "25152Y",
    "EPOCH": "2025-11-11T03:44:23.480448",
    "MEAN_MOTION": 15.05648108,
    "ECCENTRICITY": 0.0001899,
    "INCLINATION": 97.6026,
    "RA_OF_ASC_NODE": 168.7023,
    "ARG_OF_PERICENTER": 80.876,
    "MEAN_ANOMALY": 279.2682,
    "EPHEMERIS_TYPE": 0,
    "CLASSIFICATION_TYPE": "U",
    "NORAD_CAT_ID": 64864,
    "ELEMENT_SET_NO": 999,
    "REV_AT_EPOCH": 1758,
    "BSTAR": 0.00063025,
    "MEAN_MOTION_DOT": 9.044e-05,
    "MEAN_MOTION_DDOT": 0.0,
    "TLE_LINE1": "1 64864U 25152Y   25315.15582732  .00009044  00000+0  63025-3 0  9997",
    "TLE_LINE2": "2 64864  97.6026 168.7023 0001899  80.8760 279.2682 15.05648108 17588",
    "COMMENT": "Grouped by shell and plane from TLE"
  },
  {
    "OBJECT_NAME": "STARLINK-34544",
    "OBJECT_ID": "25152Z",
    "EPOCH": "2025-11-11T03:32:25.429920",
    "MEAN_MOTION": 15.05655457,
    "ECCENTRICITY": 0.0002389,
    "INCLINATION": 97.603,
    "RA_OF_ASC_NODE": 168.7109,
    "ARG_OF_PERICENTER": 78.7553,
    "MEAN_ANOMALY": 281.3942,
    "EPHEMERIS_TYPE": 0,
    "CLASSIFICATION_TYPE": "U",
    "NORAD_CAT_ID": 64865,
    "ELEMENT_SET_NO": 999,
    "REV_AT_EPOCH": 1758,
    "BSTAR": 0.00033916,
    "MEAN_MOTION_DOT": 4.837e-05,
    "MEAN_MOTION_DDOT": 0.0,
    "TLE_LINE1": "1 64865U 25152Z   25315.14751655  .00004837  00000+0  33916-3 0  9990",
    "TLE_LINE2": "2 64865  97.6030 168.7109 0002389  78.7553 281.3942 15.05655457 17588",
    "COMMENT": "Grouped by shell and plane from TLE"
  },
  {
    "OBJECT_NAME": "STARLINK-35142",
    "OBJECT_ID": "25194A",
    "EPOCH": "2025-11-11T04:38:15.118656",
    "MEAN_MOTION": 15.05658703,
    "ECCENTRICITY": 0.0002819,
    "INCLINATION": 97.6023,
    "RA_OF_ASC_NODE": 167.5127,
    "ARG_OF_PERICENTER": 85.6385,
    "MEAN_ANOMALY": 274.5163,
    "EPHEMERIS_TYPE": 0,
    "CLASSIFICATION_TYPE": "U",
    "NORAD_CAT_ID": 65434,
    "ELEMENT_SET_NO": 999,
    "REV_AT_EPOCH": 1181,
    "BSTAR": 0.00067518,
    "MEAN_MOTION_DOT": 9.698e-05,
    "MEAN_MOTION_DDOT": 0.0,
    "TLE_LINE1": "1 65434U 25194A   25315.19323054  .00009698  00000+0  67518-3 0  9997",
    "TLE_LINE2": "2 65434  97.6023 167.5127 0002819  85.6385 274.5163 15.05658703 11814",
    "COMMENT": "Grouped by shell and plane from TLE"
  },
  {
    "OBJECT_NAME": "STARLINK-34978",
    "OBJECT_ID": "25194B",
    "EPOCH": "2025-11-11T03:30:28.579968",
    "MEAN_MOTION": 15.05651476,
    "ECCENTRICITY": 0.000236,
    "INCLINATION": 97.6031,
    "RA_OF_ASC_NODE": 167.5931,
    "ARG_OF_PERICENTER": 78.1096,
    "MEAN_ANOMALY": 282.0395,
    "EPHEMERIS_TYPE": 0,
    "CLASSIFICATION_TYPE": "U",
    "NORAD_CAT_ID": 65435,
    "ELEMENT_SET_NO": 999,
    "REV_AT_EPOCH": 1181,
    "BSTAR": 0.00030113000000000004,
    "MEAN_MOTION_DOT": 4.287e-05,
    "MEAN_MOTION_DDOT": 0.0,
    "TLE_LINE1": "1 65435U 25194B   25315.14616412  .00004287  00000+0  30113-3 0  9996",
    "TLE_LINE2": "2 65435  97.6031 167.5931 0002360  78.1096 282.0395 15.05651476 11815",
    "COMMENT": "Grouped by shell and plane from TLE"
  },
  {
    "OBJECT_NAME": "STARLINK-35043",
    "OBJECT_ID": "25194C",
    "EPOCH": "2025-11-11T06:09:38.041056",
    "MEAN_MOTION": 15.00454324,
    "ECCENTRICITY": 0.0002381,
    "INCLINATION": 97.6031,
    "RA_OF_ASC_NODE": 169.3381,
    "ARG_OF_PERICENTER": 88.6102,
    "MEAN_ANOMALY": 271.5395,
    "EPHEMERIS_TYPE": 0,
    "CLASSIFICATION_TYPE": "U",
    "NORAD_CAT_ID": 65436,
    "ELEMENT_SET_NO": 999,
    "REV_AT_EPOCH": 1193,
    "BSTAR": 0.00015912,
    "MEAN_MOTION_DOT": 1.944e-05,
    "MEAN_MOTION_DDOT": 0.0,
    "TLE_LINE1": "1 65436U 25194C   25315.25669029  .00001944  00000+0  15912-3 0  9998",
    "TLE_LINE2": "2 65436  97.6031 169.3381 0002381  88.6102 271.5395 15.00454324 11936",
    "COMMENT": "Grouped by shell and plane from TLE"
  },
  {
    "OBJECT_NAME": "STARLINK-35080",
    "OBJECT_ID": "25194D",
    "EPOCH": "2025-11-11T03:38:28.609728",
    "MEAN_MOTION": 15.05642169,
    "ECCENTRICITY": 0.0001318,
    "INCLINATION": 97.6039,
    "RA_OF_ASC_NODE": 167.585,
    "ARG_OF_PERICENTER": 79.3391,
    "MEAN_ANOMALY": 280.7985,
    "EPHEMERIS_TYPE": 0,
    "CLASSIFICATION_TYPE": "U",
    "NORAD_CAT_ID": 65437,
    "ELEMENT_SET_NO": 999,
    "REV_AT_EPOCH": 1181,
    "BSTAR": 0.0016253,
    "MEAN_MOTION_DOT": 0.00023463,
    "MEAN_MOTION_DDOT": 0.0,
    "TLE_LINE1": "1 65437U 25194D   25315.15172002  .00023463  00000+0  16253-2 0  9996",
    "TLE_LINE2": "2 65437  97.6039 167.5850 0001318  79.3391 280.7985 15.05642169 11817",
    "COMMENT": "Grouped by shell and plane from TLE"
  },
  {
    "OBJECT_NAME": "STARLINK-35068",
    "OBJECT_ID": "25194E",
    "EPOCH": "2025-11-11T03:10:30.122112",
    "MEAN_MOTION": 15.05643315,
    "ECCENTRICITY": 0.0002266,
    "INCLINATION": 97.6025,
    "RA_OF_ASC_NODE": 167.4574,
    "ARG_OF_PERICENTER": 89.4133,
    "MEAN_ANOMALY": 270.7353,
    "EPHEMERIS_TYPE": 0,
    "CLASSIFICATION_TYPE": "U",
    "NORAD_CAT_ID": 65438,
    "ELEMENT_SET_NO": 999,
    "REV_AT_EPOCH": 1180,
    "BSTAR": 0.0,
    "MEAN_MOTION_DOT": -1.777e-05,
    "MEAN_MOTION_DDOT": 0.0,
    "TLE_LINE1": "1 65438U 25194E   25315.13229308 -.00001777  00000+0 -11901-3 0  9999",
    "TLE_LINE2": "2 65438  97.6025 167.4574 0002266  89.4133 270.7353 15.05643315 11805",
    "COMMENT": "Grouped by shell and plane from TLE"
  },
  {
    "OBJECT_NAME": "STARLINK-35045",
    "OBJECT_ID": "25194F",
    "EPOCH": "2025-11-11T03:50:26.952288",
    "MEAN_MOTION": 15.05641296,
    "ECCENTRICITY": 0.0002383,
    "INCLINATION": 97.602,
    "RA_OF_ASC_NODE": 167.5745,
    "ARG_OF_PERICENTER": 73.9128,
    "MEAN_ANOMALY": 286.2361,
    "EPHEMERIS_TYPE": 0,
    "CLASSIFICATION_TYPE": "U",
    "NORAD_CAT_ID": 65439,
    "ELEMENT_SET_NO": 999,
    "REV_AT_EPOCH": 1181,
    "BSTAR": 0.0015358,
    "MEAN_MOTION_DOT": 0.00022164,
    "MEAN_MOTION_DDOT": 0.0,
    "TLE_LINE1": "1 65439U 25194F   25315.16003417  .00022164  00000+0  15358-2 0  9994",
    "TLE_LINE2": "2 65439  97.6020 167.5745 0002383  73.9128 286.2361 15.05641296 11812",
    "COMMENT": "Grouped by shell and plane from TLE"
  },
  {
    "OBJECT_NAME": "STARLINK-35050",
    "OBJECT_ID": "25194G",
    "EPOCH": "2025-11-11T03:22:31.556064",
    "MEAN_MOTION": 15.05625137,
    "ECCENTRICITY": 0.0002324,
    "INCLINATION": 97.603,
    "RA_OF_ASC_NODE": 167.6017,
    "ARG_OF_PERICENTER": 82.0409,
    "MEAN_ANOMALY": 278.1082,
    "EPHEMERIS_TYPE": 0,
    "CLASSIFICATION_TYPE": "U",
    "NORAD_CAT_ID": 65440,
    "ELEMENT_SET_NO": 999,
    "REV_AT_EPOCH": 1181,
    "BSTAR": 0.0024215,
    "MEAN_MOTION_DOT": 0.00035029,
    "MEAN_MOTION_DDOT": 0.0,
    "TLE_LINE1": "1 65440U 25194G   25315.14064301  .00035029  00000+0  24215-2 0  9999",
    "TLE_LINE2": "2 65440  97.6030 167.6017 0002324  82.0409 278.1082 15.05625137 11812",
    "COMMENT": "Grouped by shell and plane from TLE"
  },
  {
    "OBJECT_NAME": "STARLINK-35065",
    "OBJECT_ID": "25194H",
    "EPOCH": "2025-11-11T04:30:16.703712",
    "MEAN_MOTION": 15.05658019,
    "ECCENTRICITY": 0.0002177,
    "INCLINATION": 97.6018,
    "RA_OF_ASC_NODE": 167.538,
    "ARG_OF_PERICENTER": 90.8667,
    "MEAN_ANOMALY": 269.281,
    "EPHEMERIS_TYPE": 0,
    "CLASSIFICATION_TYPE": "U",
    "NORAD_CAT_ID": 65441,
    "ELEMENT_SET_NO": 999,
    "REV_AT_EPOCH": 1181,
    "BSTAR": 0.00065684,
    "MEAN_MOTION_DOT": 9.432e-05,
    "MEAN_MOTION_DDOT": 0.0,
    "TLE_LINE1": "1 65441U 25194H   25315.18769333  .00009432  00000+0  65684-3 0  9996",
    "TLE_LINE2": "2 65441  97.6018 167.5380 0002177  90.8667 269.2810 15.05658019 11815",
    "COMMENT": "Grouped by shell and plane from TLE"
  },
  {
    "OBJECT_NAME": "STARLINK-34679",
    "OBJECT_ID": "25194J",
    "EPOCH": "2025-11-11T03:34:26.855616",
    "MEAN_MOTION": 15.05618294,
    "ECCENTRICITY": 0.0002345,
    "INCLINATION": 97.6035,
    "RA_OF_ASC_NODE": 167.589,
    "ARG_OF_PERICENTER": 75.8383,
    "MEAN_ANOMALY": 284.3105,
    "EPHEMERIS_TYPE": 0,
    "CLASSIFICATION_TYPE": "U",
    "NORAD_CAT_ID": 65442,
    "ELEMENT_SET_NO": 999,
    "REV_AT_EPOCH": 1181,
    "BSTAR": 0.0,
    "MEAN_MOTION_DOT": -0.00024846,
    "MEAN_MOTION_DDOT": 0.0,
    "TLE_LINE1": "1 65442U 25194J   25315.14892194 -.00024846  00000+0 -17251-2 0  9999",
    "TLE_LINE2": "2 65442  97.6035 167.5890 0002345  75.8383 284.3105 15.05618294 11812",
    "COMMENT": "Grouped by shell and plane from TLE"
  },
  {
    "OBJECT_NAME": "STARLINK-34678",
    "OBJECT_ID": "25194K",
    "EPOCH": "2025-11-11T04:22:18.164352",
    "MEAN_MOTION": 15.05661099,
    "ECCENTRICITY": 0.0002137,
    "INCLINATION": 97.6021,
    "RA_OF_ASC_NODE": 167.5458,
    "ARG_OF_PERICENTER": 59.6909,
    "MEAN_ANOMALY": 300.4529,
    "EPHEMERIS_TYPE": 0,
    "CLASSIFICATION_TYPE": "U",
    "NORAD_CAT_ID": 65443,
    "ELEMENT_SET_NO": 999,
    "REV_AT_EPOCH": 1181,
    "BSTAR": 0.00051287,
    "MEAN_MOTION_DOT": 7.349e-05,
    "MEAN_MOTION_DDOT": 0.0,
    "TLE_LINE1": "1 65443U 25194K   25315.18215468  .00007349  00000+0  51287-3 0  9992",
    "TLE_LINE2": "2 65443  97.6021 167.5458 0002137  59.6909 300.4529 15.05661099 11812",
    "COMMENT": "Grouped by shell and plane from TLE"
  }
]